satname,norad_id,inclination_deg,eccentricity,mean_motion_rev_per_day,perigee_km,apogee_km,l1,l2
STARLINK-1452,45669,53.0494,0.000447,15.21355845,498.67465772478045,504.82527667345676,1 45669U 20035N   25260.94950469  .00038441  00000+0  16992-2 0  9999,2 45669  53.0494 108.7858 0004470 179.9115 180.1882 15.21355845292888
STARLINK-1453,45670,53.0539,0.0001327,15.06408546,546.2663755250114,548.1043560808948,1 45670U 20035P   25260.80767654  .00000519  00000+0  53723-4 0  9998,2 45670  53.0539  92.7188 0001327  60.6677 299.4445 15.06408546292985
STARLINK-1454,45671,53.0551,0.0001481,15.06394812,546.2018119804061,548.2531049330009,1 45671U 20035Q   25260.88600631 -.00001214  00000+0 -62595-4 0  9990,2 45671  53.0551 122.3640 0001481  94.5835 265.5323 15.06394812292671
STARLINK-1456,45673,53.0539,0.0001473,15.06400964,546.1885000113107,548.2287068260785,1 45673U 20035S   25260.90076112  .00005288  00000+0  37361-3 0  9991,2 45673  53.0539 122.3012 0001473  92.8885 267.2272 15.06400964292699
STARLINK-1457,45674,53.0548,0.0001432,15.06409801,546.1898138357601,548.1732250597288,1 45674U 20035T   25260.90810505  .00000859  00000+0  76539-4 0  9994,2 45674  53.0548 122.2662 0001432  93.5460 266.5693 15.06409801292667
STARLINK-1458,45675,53.0536,0.0001506,15.06399264,546.1708558406535,548.2567715057321,1 45675U 20035U   25260.83071537  .00000523  00000+0  54029-4 0  9999,2 45675  53.0536 122.6122 0001506  92.9957 267.1204 15.06399264292640
STARLINK-1460,45676,53.0542,0.0001496,15.06399302,546.1776647442712,548.249729672877,1 45676U 20035V   25261.00027131 -.00002271  00000+0 -13362-3 0  9999,2 45676  53.0542 121.8511 0001496  92.0068 268.1092 15.06399302292664
STARLINK-1392,45677,53.0544,0.0001331,15.0639532,546.3041356991789,548.1476673035586,1 45677U 20035W   25260.87863286 -.00002564  00000+0 -15331-3 0  9996,2 45677  53.0544 122.3994 0001331  94.3678 265.7463 15.06395320292681
STARLINK-1394,45679,53.0544,0.0001697,15.06394298,546.0537991862257,548.4042684180986,1 45679U 20035Y   25261.00855903  .00002332  00000+0  17543-3 0  9999,2 45679  53.0544 111.8132 0001697  91.4273 268.6910 15.06394298292844
STARLINK-1402,45685,53.0545,0.0001271,15.06411898,546.294885354956,548.0552996888755,1 45685U 20035AE  25260.84027735  .00001614  00000+0  12715-3 0  9999,2 45685  53.0545 106.9886 0001271 120.9138 239.1977 15.06411898292908
STARLINK-1404,45686,53.0541,0.0002085,15.06399735,545.7684347815593,548.6563054689022,1 45686U 20035AF  25261.03436418  .00001161  00000+0  96835-4 0  9997,2 45686  53.0541 111.7034 0002085  86.6065 273.5162 15.06399735292852
STARLINK-1413,45689,53.0535,0.0001395,15.06392913,546.2671895038457,548.1993678115905,1 45689U 20035AJ  25260.98644424 -.00001267  00000+0 -66184-4 0  9994,2 45689  53.0535 111.9100 0001395  88.4953 271.6196 15.06392913292759
STARLINK-1417,45693,53.0549,0.0001551,15.06391624,546.1631037478992,548.3113548338251,1 45693U 20035AN  25260.85007049  .00000174  00000+0  30562-4 0  9996,2 45693  53.0549 112.5302 0001551  91.8010 268.3157 15.06391624292811
STARLINK-1420,45695,53.0542,0.0001413,15.06409605,546.2035725613887,548.1606677447435,1 45695U 20035AQ  25260.85094348  .00000527  00000+0  54280-4 0  9991,2 45695  53.0542  92.5114 0001413  91.7501 268.3650 15.06409605293105
STARLINK-1422,45696,53.0532,0.0001464,15.06403379,546.1873322965548,548.2150713220453,1 45696U 20035AR  25260.99381938  .00000922  00000+0  80806-4 0  9993,2 45696  53.0532 111.8826 0001464  92.4392 267.6765 15.06403379292832
STARLINK-1351,45697,53.0547,0.0001339,15.06400988,546.2812260957817,548.1358336286794,1 45697U 20035AS  25260.77081203  .00000206  00000+0  32694-4 0  9999,2 45697  53.0547  92.8791 0001339  88.6416 271.4726 15.06400988293095
STARLINK-1398,45699,53.0522,0.0006129,15.42576516,434.33039953053867,442.6862433655697,1 45699U 20035AU  25261.25011574  .00150005  00000+0  33409-2 0  9995,2 45699  53.0522  62.5805 0006129 140.1958  97.8173 15.42576516  5680
STARLINK-1400,45700,53.0543,0.000139,15.06385063,546.2947082572491,548.2199678832312,1 45700U 20035AV  25260.94405591 -.00000490  00000+0 -13981-4 0  9998,2 45700  53.0543  92.1041 0001390  98.2415 261.8731 15.06385063293118
STARLINK-1403,45701,53.0547,0.0001386,15.0639344,546.2718073696706,548.1915195631836,1 45701U 20035AW  25260.97354518 -.00000623  00000+0 -22923-4 0  9998,2 45701  53.0547  91.9708 0001386  93.2107 266.9041 15.06393440293116
STARLINK-1407,45703,53.0437,0.0007513,15.33695922,459.65561283691295,469.9378050279538,1 45703U 20035AY  25260.73500637  .00044746  00000+0  13564-2 0  9990,2 45703  53.0437  61.2417 0007513 208.7203 151.3385 15.33695922293535
STARLINK-1411,45706,53.0571,9.35e-05,15.27446018,482.80875725891747,484.0918740869474,1 45706U 20035BB  25260.78495315  .00157260  00000+0  56683-2 0  9999,2 45706  53.0571  87.1112 0000935  93.6235 266.4870 15.27446018293162
STARLINK-1423,45710,53.0539,0.0001386,15.06396552,546.2622708070257,548.1819803566377,1 45710U 20035BF  25260.80030582  .00000396  00000+0  45455-4 0  9992,2 45710  53.0539  92.7505 0001386  91.1589 268.9559 15.06396552293092
STARLINK-1433,45711,53.0531,0.0001304,15.0637435,546.3870969061927,548.1932483128085,1 45711U 20035BG  25260.84822691  .00000919  00000+0  80657-4 0  9991,2 45711  53.0531  92.5347 0001304  98.9191 261.1946 15.06374350293098
STARLINK-1434,45712,53.0524,0.0004315,15.11139768,529.7407987021861,535.7048707395497,1 45712U 20035BH  25260.94621831  .00026847  00000+0  15943-2 0  9998,2 45712  53.0524  90.3778 0004315 100.5713 259.5764 15.11139768293143
STARLINK-1465,45731,53.0523,0.0001032,15.0642646,546.4157754340604,547.8451506384317,1 45731U 20038B   25261.08041011  .00005573  00000+0  39247-3 0  9991,2 45731  53.0523 291.4921 0001032  80.6235 279.4870 15.06426460290178
STARLINK-1471,45735,53.0477,0.0003626,15.38067435,449.3479716776774,454.3010597688808,1 45735U 20038F   25260.34774379  .00031907  00000+0  84587-3 0  9990,2 45735  53.0477 245.4264 0003626  38.1455 321.9804 15.38067435290765
STARLINK-1474,45738,53.0394,0.0005907,15.59216689,385.92497391421966,393.92075984095027,1 45738U 20038J   25261.18024673  .00048718  00000+0  61203-3 0  9999,2 45738  53.0394 206.2693 0005907 106.4665 253.6997 15.59216689291386
STARLINK-1475,45739,53.0545,0.0008761,15.58645304,385.6458917762502,397.5077843633162,1 45739U 20038K   25261.25011574  .00183019  00000+0  22911-2 0  9990,2 45739  53.0545 173.5872 0008761  70.6247  84.2920 15.58645304  5778
